{
  "norad_id": 55145,
  "name": "ONEWEB-0560",
  "history": [
    {
      "epoch": "2026-05-02T07:42:12.385152Z",
      "apogee_km": 1191.2766966735535,
      "perigee_km": 1188.0497866505093,
      "latitude_deg": 2.583492369094045e-05,
      "longitude_deg": 8.794298954264834,
      "height_km": 1192.1882660813178,
      "semi_major_axis_km": 7567.800241662031,
      "eccentricity": 0.0002132,
      "inclination_deg": 87.9183,
      "raan_deg": 344.5866,
      "arg_perigee_deg": 76.6871,
      "mean_anomaly_deg": 283.4499,
      "mean_motion_rev_day": 13.1870688
    },
    {
      "epoch": "2026-05-03T16:28:54.022368Z",
      "apogee_km": 1191.1050042605275,
      "perigee_km": 1188.2625307802482,
      "latitude_deg": 1.567089467849531e-05,
      "longitude_deg": -124.49674757060914,
      "height_km": 1192.2955590773502,
      "semi_major_axis_km": 7567.820767520388,
      "eccentricity": 0.0001878,
      "inclination_deg": 87.9182,
      "raan_deg": 344.3152,
      "arg_perigee_deg": 78.4242,
      "mean_anomaly_deg": 281.7101,
      "mean_motion_rev_day": 13.18701515
    },
    {
      "epoch": "2026-05-04T16:09:18.426816Z",
      "apogee_km": 1191.0727857158909,
      "perigee_km": 1188.402839482007,
      "latitude_deg": 1.7332860519799243e-05,
      "longitude_deg": -120.7666699251796,
      "height_km": 1192.279357889487,
      "semi_major_axis_km": 7567.874812598949,
      "eccentricity": 0.0001764,
      "inclination_deg": 87.9182,
      "raan_deg": 344.1192,
      "arg_perigee_deg": 74.5493,
      "mean_anomaly_deg": 285.5834,
      "mean_motion_rev_day": 13.18687389
    },
    {
      "epoch": "2026-05-05T08:32:39.949152Z",
      "apogee_km": 1191.0686553276564,
      "perigee_km": 1188.409303708454,
      "latitude_deg": 3.542836611366006e-05,
      "longitude_deg": -7.415133328709907,
      "height_km": 1192.2724182991544,
      "semi_major_axis_km": 7567.875979518055,
      "eccentricity": 0.0001757,
      "inclination_deg": 87.9181,
      "raan_deg": 343.9835,
      "arg_perigee_deg": 74.1228,
      "mean_anomaly_deg": 286.0098,
      "mean_motion_rev_day": 13.18687084
    },
    {
      "epoch": "2026-05-06T08:13:04.430496Z",
      "apogee_km": 1190.9925954336632,
      "perigee_km": 1188.4977673937383,
      "latitude_deg": 6.002530112078759e-05,
      "longitude_deg": -3.685876571639315,
      "height_km": 1192.3441251638192,
      "semi_major_axis_km": 7567.882181413701,
      "eccentricity": 0.00016483,
      "inclination_deg": 87.9172,
      "raan_deg": 343.787,
      "arg_perigee_deg": 76.1589,
      "mean_anomaly_deg": 283.9727,
      "mean_motion_rev_day": 13.18685463
    },
    {
      "epoch": "2026-05-07T20:38:19.122720Z",
      "apogee_km": 1191.002238137161,
      "perigee_km": 1188.4897009912647,
      "latitude_deg": -6.0777861712161104e-05,
      "longitude_deg": 168.20534901225128,
      "height_km": 1192.3401584389778,
      "semi_major_axis_km": 7567.8829695642125,
      "eccentricity": 0.000166,
      "inclination_deg": 87.918,
      "raan_deg": 343.4852,
      "arg_perigee_deg": 76.0348,
      "mean_anomaly_deg": 284.0968,
      "mean_motion_rev_day": 13.18685257
    },
    {
      "epoch": "2026-05-08T20:18:43.672320Z",
      "apogee_km": 1191.0492546773894,
      "perigee_km": 1188.4428757497299,
      "latitude_deg": 3.191304073860549e-05,
      "longitude_deg": 171.93502397231416,
      "height_km": 1192.3337631279367,
      "semi_major_axis_km": 7567.883065213559,
      "eccentricity": 0.0001722,
      "inclination_deg": 87.9177,
      "raan_deg": 343.2894,
      "arg_perigee_deg": 76.2593,
      "mean_anomaly_deg": 283.8731,
      "mean_motion_rev_day": 13.18685232
    },
    {
      "epoch": "2026-05-09T19:59:08.245248Z",
      "apogee_km": 1191.0538707698306,
      "perigee_km": 1188.442950303196,
      "latitude_deg": 5.7921622368755514e-05,
      "longitude_deg": 175.6642998517902,
      "height_km": 1192.3467083053986,
      "semi_major_axis_km": 7567.8854105365135,
      "eccentricity": 0.0001725,
      "inclination_deg": 87.9177,
      "raan_deg": 343.0933,
      "arg_perigee_deg": 76.7627,
      "mean_anomaly_deg": 283.3698,
      "mean_motion_rev_day": 13.18684619
    },
    {
      "epoch": "2026-05-10T14:11:45.665664Z",
      "apogee_km": 1191.0434917907905,
      "perigee_km": 1188.4567879663791,
      "latitude_deg": -7.364821975680371e-05,
      "longitude_deg": -98.39039856563146,
      "height_km": 1192.353864545755,
      "semi_major_axis_km": 7567.887139878584,
      "eccentricity": 0.0001709,
      "inclination_deg": 87.9176,
      "raan_deg": 342.9424,
      "arg_perigee_deg": 76.8814,
      "mean_anomaly_deg": 283.2508,
      "mean_motion_rev_day": 13.18684167
    },
    {
      "epoch": "2026-05-11T21:09:13.215744Z",
      "apogee_km": 1191.0144009038713,
      "perigee_km": 1188.4852131329653,
      "latitude_deg": 5.999494359886361e-05,
      "longitude_deg": 155.71672813105542,
      "height_km": 1192.3575780230356,
      "semi_major_axis_km": 7567.886807018418,
      "eccentricity": 0.0001671,
      "inclination_deg": 87.9173,
      "raan_deg": 342.6857,
      "arg_perigee_deg": 76.7639,
      "mean_anomaly_deg": 283.368,
      "mean_motion_rev_day": 13.18684254
    },
    {
      "epoch": "2026-05-12T20:49:37.805088Z",
      "apogee_km": 1191.0155271109988,
      "perigee_km": 1188.4817989910089,
      "latitude_deg": 7.604339234689884e-05,
      "longitude_deg": 159.44583756673725,
      "height_km": 1192.3703842012872,
      "semi_major_axis_km": 7567.885663051004,
      "eccentricity": 0.0001674,
      "inclination_deg": 87.9171,
      "raan_deg": 342.4895,
      "arg_perigee_deg": 77.4359,
      "mean_anomaly_deg": 282.6961,
      "mean_motion_rev_day": 13.18684553
    },
    {
      "epoch": "2026-05-13T13:12:59.494176Z",
      "apogee_km": 1191.019573028375,
      "perigee_km": 1188.4813035815669,
      "latitude_deg": 2.5802486028007033e-05,
      "longitude_deg": -87.20352204122666,
      "height_km": 1192.3765539762346,
      "semi_major_axis_km": 7567.887438304971,
      "eccentricity": 0.0001677,
      "inclination_deg": 87.9171,
      "raan_deg": 342.3536,
      "arg_perigee_deg": 77.6619,
      "mean_anomaly_deg": 282.4701,
      "mean_motion_rev_day": 13.18684089
    },
    {
      "epoch": "2026-05-14T01:57:49.635936Z",
      "apogee_km": 1191.0151504237028,
      "perigee_km": 1188.4824817564904,
      "latitude_deg": 4.6515184809123894e-05,
      "longitude_deg": 80.95844358793452,
      "height_km": 1192.3818402405618,
      "semi_major_axis_km": 7567.885816090096,
      "eccentricity": 0.00016733,
      "inclination_deg": 87.9171,
      "raan_deg": 342.248,
      "arg_perigee_deg": 77.9539,
      "mean_anomaly_deg": 282.1781,
      "mean_motion_rev_day": 13.18684513
    }
  ]
}